{
  "type": "FeatureCollection",
  "features": [
    {
      "type": "Feature",
      "properties": {
        "norad_id": 64902,
        "name": "CO3D 2",
        "group": "resource",
        "lat": -11.625201086391979,
        "lon": 57.152020638859696,
        "alt_km": 509.83261671941,
        "timestamp": "2025-12-05T05:43:14.772461+00:00",
        "meta_object_name": "CO3D 2",
        "meta_object_id": "2025-156D",
        "meta_epoch": "2025-12-04T17:08:03.933888",
        "meta_mean_motion": 15.20209113,
        "meta_eccentricity": 9.14e-05,
        "meta_inclination": 97.4352,
        "meta_ra_of_asc_node": 55.0955,
        "meta_arg_of_pericenter": 102.2855,
        "meta_mean_anomaly": 257.8483,
        "meta_ephemeris_type": 0,
        "meta_classification_type": "U",
        "meta_norad_cat_id": 64902,
        "meta_element_set_no": 999,
        "meta_rev_at_epoch": 1998,
        "meta_bstar": 0.0011998,
        "meta_mean_motion_dot": 0.00026002,
        "meta_mean_motion_ddot": 0,
        "tle_line1": "1 64902U 25156D   25338.71393442  .00026002  00000+0  11998-2 0  9993",
        "tle_line2": "2 64902  97.4352  55.0955 0000914 102.2855 257.8483 15.20209113 19987"
      },
      "geometry": {
        "type": "Point",
        "coordinates": [
          57.152020638859696,
          -11.625201086391979
        ]
      }
    },
    {
      "type": "Feature",
      "properties": {
        "norad_id": 64903,
        "name": "CO3D 1",
        "group": "resource",
        "lat": -12.463332766724475,
        "lon": 57.2663776029071,
        "alt_km": 510.0436218877294,
        "timestamp": "2025-12-05T05:43:14.772471+00:00",
        "meta_object_name": "CO3D 1",
        "meta_object_id": "2025-156E",
        "meta_epoch": "2025-12-04T18:43:04.190304",
        "meta_mean_motion": 15.20210282,
        "meta_eccentricity": 9.1e-05,
        "meta_inclination": 97.4349,
        "meta_ra_of_asc_node": 55.1605,
        "meta_arg_of_pericenter": 110.8154,
        "meta_mean_anomaly": 249.3178,
        "meta_ephemeris_type": 0,
        "meta_classification_type": "U",
        "meta_norad_cat_id": 64903,
        "meta_element_set_no": 999,
        "meta_rev_at_epoch": 1999,
        "meta_bstar": 0.00080042,
        "meta_mean_motion_dot": 0.00017304,
        "meta_mean_motion_ddot": 0,
        "tle_line1": "1 64903U 25156E   25338.77990961  .00017304  00000+0  80042-3 0  9991",
        "tle_line2": "2 64903  97.4349  55.1605 0000910 110.8154 249.3178 15.20210282 19997"
      },
      "geometry": {
        "type": "Point",
        "coordinates": [
          57.2663776029071,
          -12.463332766724475
        ]
      }
    },
    {
      "type": "Feature",
      "properties": {
        "norad_id": 66514,
        "name": "SENTINEL-6B",
        "group": "resource",
        "lat": 11.350228698799462,
        "lon": -176.8046031822696,
        "alt_km": 1320.4490274384762,
        "timestamp": "2025-12-05T05:43:14.772482+00:00",
        "meta_object_name": "SENTINEL-6B",
        "meta_object_id": "2025-264A",
        "meta_epoch": "2025-12-04T16:35:23.950752",
        "meta_mean_motion": 12.85877695,
        "meta_eccentricity": 0.0011543,
        "meta_inclination": 66.039,
        "meta_ra_of_asc_node": 179.2209,
        "meta_arg_of_pericenter": 268.4543,
        "meta_mean_anomaly": 91.5153,
        "meta_ephemeris_type": 0,
        "meta_classification_type": "U",
        "meta_norad_cat_id": 66514,
        "meta_element_set_no": 999,
        "meta_rev_at_epoch": 225,
        "meta_bstar": 0.00030155,
        "meta_mean_motion_dot": 1.3e-07,
        "meta_mean_motion_ddot": 0,
        "tle_line1": "1 66514U 25264A   25338.69124943  .00000013  00000+0  30155-3 0  9990",
        "tle_line2": "2 66514  66.0390 179.2209 0011543 268.4543  91.5153 12.85877695  2255"
      },
      "geometry": {
        "type": "Point",
        "coordinates": [
          -176.8046031822696,
          11.350228698799462
        ]
      }
    }
  ]
}